{"type": "FeatureCollection", "features": [ {"type": "Feature", "properties": {"norad_id": 39122, "name": "EUTELSAT 117 WEST A", "group": "eutelsat", "lat": 0.0411075031135471, "lon": 71.49385424088281, "alt_km": 35798.606216013664, "timestamp": "2025-12-04T07:39:35.841548+00:00", "meta": {"OBJECT_NAME": "EUTELSAT 117 WEST A", "OBJECT_ID": "2013-012A", "EPOCH": "2025-12-03T13:12:01.410912", "MEAN_MOTION": 1.00274082, "ECCENTRICITY": 0.000313, "INCLINATION": 0.0219, "RA_OF_ASC_NODE": 309.0576, "ARG_OF_PERICENTER": 308.0707, "MEAN_ANOMALY": 256.726, "EPHEMERIS_TYPE": 0, "CLASSIFICATION_TYPE": "U", "NORAD_CAT_ID": 39122, "ELEMENT_SET_NO": 999, "REV_AT_EPOCH": 4647, "BSTAR": 0, "MEAN_MOTION_DOT": 5e-08, "MEAN_MOTION_DDOT": 0}, "tle": {"line1": "1 39122U 13012A   25337.55001633  .00000005  00000+0  00000+0 0  9990", "line2": "2 39122   0.0219 309.0576 0003130 308.0707 256.7260  1.00274082 46476"}}, "geometry": {"type": "Point", "coordinates": [71.49385424088281, 0.0411075031135471]}}, {"type": "Feature", "properties": {"norad_id": 39163, "name": "EUTELSAT 7B", "group": "eutelsat", "lat": -0.03508332682642547, "lon": -164.77722749492867, "alt_km": 35794.31468916134, "timestamp": "2025-12-04T07:39:35.841559+00:00", "meta": {"OBJECT_NAME": "EUTELSAT 7B", "OBJECT_ID": "2013-022A", "EPOCH": "2025-12-03T17:12:48.873312", "MEAN_MOTION": 1.00269536, "ECCENTRICITY": 0.00042199, "INCLINATION": 0.0678, "RA_OF_ASC_NODE": 0.663, "ARG_OF_PERICENTER": 310.3325, "MEAN_ANOMALY": 27.0084, "EPHEMERIS_TYPE": 0, "CLASSIFICATION_TYPE": "U", "NORAD_CAT_ID": 39163, "ELEMENT_SET_NO": 999, "REV_AT_EPOCH": 4599, "BSTAR": 0, "MEAN_MOTION_DOT": 6.5e-07, "MEAN_MOTION_DDOT": 0}, "tle": {"line1": "1 39163U 13022A   25337.71723233  .00000065  00000+0  00000+0 0  9997", "line2": "2 39163   0.0678   0.6630 0004219 310.3325  27.0084  1.00269536 45993"}}, "geometry": {"type": "Point", "coordinates": [-164.77722749492867, -0.03508332682642547]}}, {"type": "Feature", "properties": {"norad_id": 39612, "name": "EXPRESS-AT1", "group": "eutelsat", "lat": -0.037598463169263366, "lon": -115.72488937579838, "alt_km": 35786.39853209856, "timestamp": "2025-12-04T07:39:35.841570+00:00", "meta": {"OBJECT_NAME": "EXPRESS-AT1", "OBJECT_ID": "2014-010A", "EPOCH": "2025-12-03T21:56:38.683968", "MEAN_MOTION": 1.00270078, "ECCENTRICITY": 2.569e-05, "INCLINATION": 0.017, "RA_OF_ASC_NODE": 302.0572, "ARG_OF_PERICENTER": 219.2348, "MEAN_ANOMALY": 296.8676, "EPHEMERIS_TYPE": 0, "CLASSIFICATION_TYPE": "U", "NORAD_CAT_ID": 39612, "ELEMENT_SET_NO": 999, "REV_AT_EPOCH": 4286, "BSTAR": 0, "MEAN_MOTION_DOT": 9.6e-07, "MEAN_MOTION_DDOT": 0}, "tle": {"line1": "1 39612U 14010A   25337.91433662  .00000096  00000+0  00000+0 0  9994", "line2": "2 39612   0.0170 302.0572 0000256 219.2348 296.8676  1.00270078 42861"}}, "geometry": {"type": "Point", "coordinates": [-115.72488937579838, -0.037598463169263366]}}, {"type": "Feature", "properties": {"norad_id": 39613, "name": "EXPRESS-AT2", "group": "eutelsat", "lat": -0.0007307133833775474, "lon": -31.87516640054016, "alt_km": 35781.396649975126, "timestamp": "2025-12-04T07:39:35.841581+00:00", "meta": {"OBJECT_NAME": "EXPRESS-AT2", "OBJECT_ID": "2014-010B", "EPOCH": "2025-12-03T21:34:38.771040", "MEAN_MOTION": 1.00270417, "ECCENTRICITY": 0.00014975, "INCLINATION": 0.0219, "RA_OF_ASC_NODE": 333.2417, "ARG_OF_PERICENTER": 319.3062, "MEAN_ANOMALY": 243.9394, "EPHEMERIS_TYPE": 0, "CLASSIFICATION_TYPE": "U", "NORAD_CAT_ID": 39613, "ELEMENT_SET_NO": 999, "REV_AT_EPOCH": 4254, "BSTAR": 0, "MEAN_MOTION_DOT": 0, "MEAN_MOTION_DDOT": 0}, "tle": {"line1": "1 39613U 14010B   25337.89905985  .00000000  00000+0  00000+0 0  9999", "line2": "2 39613   0.0219 333.2417 0001497 319.3062 243.9394  1.00270417 42545"}}, "geometry": {"type": "Point", "coordinates": [-31.87516640054016, -0.0007307133833775474]}}, {"type": "Feature", "properties": {"norad_id": 39773, "name": "EUTELSAT 3B", "group": "eutelsat", "lat": -0.025820424025167307, "lon": -168.66703616552005, "alt_km": 35770.21429786558, "timestamp": "2025-12-04T07:39:35.841592+00:00", "meta": {"OBJECT_NAME": "EUTELSAT 3B", "OBJECT_ID": "2014-030A", "EPOCH": "2025-12-03T18:42:38.603808", "MEAN_MOTION": 1.00270877, "ECCENTRICITY": 0.00047809, "INCLINATION": 0.0635, "RA_OF_ASC_NODE": 3.048, "ARG_OF_PERICENTER": 225.3781, "MEAN_ANOMALY": 128.1935, "EPHEMERIS_TYPE": 0, "CLASSIFICATION_TYPE": "U", "NORAD_CAT_ID": 39773, "ELEMENT_SET_NO": 999, "REV_AT_EPOCH": 4210, "BSTAR": 0, "MEAN_MOTION_DOT": 3.7e-07, "MEAN_MOTION_DDOT": 0}, "tle": {"line1": "1 39773U 14030A   25337.77961347  .00000037  00000+0  00000+0 0  9999", "line2": "2 39773   0.0635   3.0480 0004780 225.3781 128.1935  1.00270877 42105"}}, "geometry": {"type": "Point", "coordinates": [-168.66703616552005, -0.025820424025167307]}}, {"type": "Feature", "properties": {"norad_id": 40425, "name": "EUTELSAT 115 WEST B", "group": "eutelsat", "lat": -0.01089676203664292, "lon": 73.37934440507335, "alt_km": 35784.4692513152, "timestamp": "2025-12-04T07:39:35.841603+00:00", "meta": {"OBJECT_NAME": "EUTELSAT 115 WEST B", "OBJECT_ID": "2015-010B", "EPOCH": "2025-12-03T16:37:59.708352", "MEAN_MOTION": 1.00270514, "ECCENTRICITY": 4.787e-05, "INCLINATION": 0.0142, "RA_OF_ASC_NODE": 147.7315, "ARG_OF_PERICENTER": 301.2332, "MEAN_ANOMALY": 118.4232, "EPHEMERIS_TYPE": 0, "CLASSIFICATION_TYPE": "U", "NORAD_CAT_ID": 40425, "ELEMENT_SET_NO": 999, "REV_AT_EPOCH": 3943, "BSTAR": 0, "MEAN_MOTION_DOT": -7e-08, "MEAN_MOTION_DDOT": 0}, "tle": {"line1": "1 40425U 15010B   25337.69305218 -.00000007  00000+0  00000+0 0  9992", "line2": "2 40425   0.0142 147.7315 0000478 301.2332 118.4232  1.00270514 39435"}}, "geometry": {"type": "Point", "coordinates": [73.37934440507335, -0.01089676203664292]}}, {"type": "Feature", "properties": {"norad_id": 40875, "name": "EUTELSAT 8 WEST B", "group": "eutelsat", "lat": -0.02790182805871298, "lon": -179.7661892074169, "alt_km": 35781.515515027844, "timestamp": "2025-12-04T07:39:35.841614+00:00", "meta": {"OBJECT_NAME": "EUTELSAT 8 WEST B", "OBJECT_ID": "2015-039B", "EPOCH": "2025-12-03T18:42:38.603808", "MEAN_MOTION": 1.00271603, "ECCENTRICITY": 0.00041368, "INCLINATION": 0.0656, "RA_OF_ASC_NODE": 348.0497, "ARG_OF_PERICENTER": 266.9751, "MEAN_ANOMALY": 90.5072, "EPHEMERIS_TYPE": 0, "CLASSIFICATION_TYPE": "U", "NORAD_CAT_ID": 40875, "ELEMENT_SET_NO": 999, "REV_AT_EPOCH": 3769, "BSTAR": 0, "MEAN_MOTION_DOT": -4.8e-07, "MEAN_MOTION_DDOT": 0}, "tle": {"line1": "1 40875U 15039B   25337.77961347 -.00000048  00000+0  00000+0 0  9997", "line2": "2 40875   0.0656 348.0497 0004136 266.9751  90.5072  1.00271603 37696"}}, "geometry": {"type": "Point", "coordinates": [-179.7661892074169, -0.02790182805871298]}}, {"type": "Feature", "properties": {"norad_id": 41310, "name": "EUTELSAT 9B", "group": "eutelsat", "lat": 0.028931884809667137, "lon": -162.79398379078003, "alt_km": 35778.204576393124, "timestamp": "2025-12-04T07:39:35.841625+00:00", "meta": {"OBJECT_NAME": "EUTELSAT 9B", "OBJECT_ID": "2016-005A", "EPOCH": "2025-12-03T18:20:38.512032", "MEAN_MOTION": 1.00271404, "ECCENTRICITY": 0.00049351, "INCLINATION": 0.0667, "RA_OF_ASC_NODE": 75.1565, "ARG_OF_PERICENTER": 189.8997, "MEAN_ANOMALY": 91.9391, "EPHEMERIS_TYPE": 0, "CLASSIFICATION_TYPE": "U", "NORAD_CAT_ID": 41310, "ELEMENT_SET_NO": 999, "REV_AT_EPOCH": 3615, "BSTAR": 0, "MEAN_MOTION_DOT": 7.9e-07, "MEAN_MOTION_DDOT": 0}, "tle": {"line1": "1 41310U 16005A   25337.76433463  .00000079  00000+0  00000+0 0  9991", "line2": "2 41310   0.0667  75.1565 0004935 189.8997  91.9391  1.00271404 36157"}}, "geometry": {"type": "Point", "coordinates": [-162.79398379078003, 0.028931884809667137]}}, {"type": "Feature", "properties": {"norad_id": 41382, "name": "EUTELSAT 65 WEST A", "group": "eutelsat", "lat": 0.04315779229539889, "lon": 123.04785347861625, "alt_km": 35795.018779984006, "timestamp": "2025-12-04T07:39:35.841636+00:00", "meta": {"OBJECT_NAME": "EUTELSAT 65 WEST A", "OBJECT_ID": "2016-014A", "EPOCH": "2025-12-03T10:01:12.190080", "MEAN_MOTION": 1.00270652, "ECCENTRICITY": 0.00027799, "INCLINATION": 0.0504, "RA_OF_ASC_NODE": 344.5568, "ARG_OF_PERICENTER": 274.9702, "MEAN_ANOMALY": 258.0819, "EPHEMERIS_TYPE": 0, "CLASSIFICATION_TYPE": "U", "NORAD_CAT_ID": 41382, "ELEMENT_SET_NO": 999, "REV_AT_EPOCH": 3557, "BSTAR": 0, "MEAN_MOTION_DOT": -2.58e-06, "MEAN_MOTION_DDOT": 0}, "tle": {"line1": "1 41382U 16014A   25337.41750220 -.00000258  00000+0  00000+0 0  9995", "line2": "2 41382   0.0504 344.5568 0002779 274.9702 258.0819  1.00270652 35576"}}, "geometry": {"type": "Point", "coordinates": [123.04785347861625, 0.04315779229539889]}}, {"type": "Feature", "properties": {"norad_id": 41589, "name": "EUTELSAT 117 WEST B", "group": "eutelsat", "lat": -0.017720294349587395, "lon": 71.26299013952418, "alt_km": 35786.406816302144, "timestamp": "2025-12-04T07:39:35.841647+00:00", "meta": {"OBJECT_NAME": "EUTELSAT 117 WEST B", "OBJECT_ID": "2016-038B", "EPOCH": "2025-12-03T16:37:22.267776", "MEAN_MOTION": 1.002675, "ECCENTRICITY": 2.71e-05, "INCLINATION": 0.0072, "RA_OF_ASC_NODE": 146.0291, "ARG_OF_PERICENTER": 327.1169, "MEAN_ANOMALY": 91.9765, "EPHEMERIS_TYPE": 0, "CLASSIFICATION_TYPE": "U", "NORAD_CAT_ID": 41589, "ELEMENT_SET_NO": 999, "REV_AT_EPOCH": 3470, "BSTAR": 0, "MEAN_MOTION_DOT": 7e-08, "MEAN_MOTION_DDOT": 0}, "tle": {"line1": "1 41589U 16038B   25337.69261884  .00000007  00000+0  00000+0 0  9994", "line2": "2 41589   0.0072 146.0291 0000271 327.1169  91.9765  1.00267500 34702"}}, "geometry": {"type": "Point", "coordinates": [71.26299013952418, -0.017720294349587395]}}]}